{
  "links" : {
    "next" : "https://api.nasa.gov/neo/rest/v1/feed?start_date=2006-07-23&end_date=2006-07-23&detailed=true&api_key=t0TVs3DtDT2H8Oy2Zy8m2eVrNsAVKAexjcZXUckd",
    "prev" : "https://api.nasa.gov/neo/rest/v1/feed?start_date=2006-07-21&end_date=2006-07-21&detailed=true&api_key=t0TVs3DtDT2H8Oy2Zy8m2eVrNsAVKAexjcZXUckd",
    "self" : "https://api.nasa.gov/neo/rest/v1/feed?start_date=2006-07-22&end_date=2006-07-22&detailed=true&api_key=t0TVs3DtDT2H8Oy2Zy8m2eVrNsAVKAexjcZXUckd"
  },
  "element_count" : 5,
  "near_earth_objects" : {
    "2006-07-22" : [ {
      "links" : {
        "self" : "https://api.nasa.gov/neo/rest/v1/neo/3757291?api_key=t0TVs3DtDT2H8Oy2Zy8m2eVrNsAVKAexjcZXUckd"
      },
      "neo_reference_id" : "3757291",
      "name" : "(2016 PH38)",
      "nasa_jpl_url" : "http://ssd.jpl.nasa.gov/sbdb.cgi?sstr=3757291",
      "absolute_magnitude_h" : 20.6,
      "estimated_diameter" : {
        "kilometers" : {
          "estimated_diameter_min" : 0.2016299194,
          "estimated_diameter_max" : 0.4508582062
        },
        "meters" : {
          "estimated_diameter_min" : 201.6299194428,
          "estimated_diameter_max" : 450.8582061718
        },
        "miles" : {
          "estimated_diameter_min" : 0.1252869847,
          "estimated_diameter_max" : 0.2801502144
        },
        "feet" : {
          "estimated_diameter_min" : 661.5155049046,
          "estimated_diameter_max" : 1479.1936371367
        }
      },
      "is_potentially_hazardous_asteroid" : false,
      "close_approach_data" : [ {
        "close_approach_date" : "2006-07-22",
        "epoch_date_close_approach" : 1153551600000,
        "relative_velocity" : {
          "kilometers_per_second" : "21.8484750622",
          "kilometers_per_hour" : "78654.5102238329",
          "miles_per_hour" : "48872.853866581"
        },
        "miss_distance" : {
          "astronomical" : "0.2623717651",
          "lunar" : "102.0626220703",
          "kilometers" : "39250260",
          "miles" : "24388980"
        },
        "orbiting_body" : "Earth"
      } ],
      "orbital_data" : {
        "orbit_id" : "5",
        "orbit_determination_date" : "2017-04-06 08:24:36",
        "orbit_uncertainty" : "6",
        "minimum_orbit_intersection" : ".259874",
        "jupiter_tisserand_invariant" : "3.633",
        "epoch_osculation" : "2458000.5",
        "eccentricity" : ".7167155362566165",
        "semi_major_axis" : "1.831683383179719",
        "inclination" : "16.7992176843339",
        "ascending_node_longitude" : "180.6981542011159",
        "orbital_period" : "905.4699361134741",
        "perihelion_distance" : ".5188874449517331",
        "perihelion_argument" : "18.58933819778133",
        "aphelion_distance" : "3.144479321407705",
        "perihelion_time" : "2458415.748433359852",
        "mean_anomaly" : "194.9040315449936",
        "mean_motion" : ".3975836034327312",
        "equinox" : "J2000"
      }
    }, {
      "links" : {
        "self" : "https://api.nasa.gov/neo/rest/v1/neo/3762164?api_key=t0TVs3DtDT2H8Oy2Zy8m2eVrNsAVKAexjcZXUckd"
      },
      "neo_reference_id" : "3762164",
      "name" : "(2016 UZ56)",
      "nasa_jpl_url" : "http://ssd.jpl.nasa.gov/sbdb.cgi?sstr=3762164",
      "absolute_magnitude_h" : 24.0,
      "estimated_diameter" : {
        "kilometers" : {
          "estimated_diameter_min" : 0.0421264611,
          "estimated_diameter_max" : 0.0941976306
        },
        "meters" : {
          "estimated_diameter_min" : 42.1264610556,
          "estimated_diameter_max" : 94.1976305719
        },
        "miles" : {
          "estimated_diameter_min" : 0.0261761612,
          "estimated_diameter_max" : 0.0585316759
        },
        "feet" : {
          "estimated_diameter_min" : 138.2101784897,
          "estimated_diameter_max" : 309.0473542854
        }
      },
      "is_potentially_hazardous_asteroid" : false,
      "close_approach_data" : [ {
        "close_approach_date" : "2006-07-22",
        "epoch_date_close_approach" : 1153551600000,
        "relative_velocity" : {
          "kilometers_per_second" : "6.2131299462",
          "kilometers_per_hour" : "22367.2678062117",
          "miles_per_hour" : "13898.1503765875"
        },
        "miss_distance" : {
          "astronomical" : "0.443840867",
          "lunar" : "172.6540985107",
          "kilometers" : "66397648",
          "miles" : "41257584"
        },
        "orbiting_body" : "Earth"
      } ],
      "orbital_data" : {
        "orbit_id" : "9",
        "orbit_determination_date" : "2017-04-25 06:17:13",
        "orbit_uncertainty" : "4",
        "minimum_orbit_intersection" : ".0824436",
        "jupiter_tisserand_invariant" : "5.418",
        "epoch_osculation" : "2458000.5",
        "eccentricity" : ".1738111646348324",
        "semi_major_axis" : "1.150995540376495",
        "inclination" : "14.50256525174359",
        "ascending_node_longitude" : "42.62597002825503",
        "orbital_period" : "451.0335918616784",
        "perihelion_distance" : ".9509396650141578",
        "perihelion_argument" : "81.53637541491904",
        "aphelion_distance" : "1.351051415738831",
        "perihelion_time" : "2457777.225291805115",
        "mean_anomaly" : "178.2104401988957",
        "mean_motion" : ".7981667141776964",
        "equinox" : "J2000"
      }
    } ]
  }
}